{
  "type": "FeatureCollection",
  "features": [
    {
      "type": "Feature",
      "properties": {
        "norad_id": 36182,
        "name": "FENGYUN 1C DEB",
        "group": "fengyun-1c-debris",
        "lat": -15.202349912776144,
        "lon": 85.53768078467358,
        "alt_km": 784.3188664652607,
        "timestamp": "2025-12-06T18:50:10.456685+00:00",
        "meta_object_name": "FENGYUN 1C DEB",
        "meta_object_id": "1999-025DTF",
        "meta_epoch": "2025-12-06T01:11:33.585792",
        "meta_mean_motion": 14.34634335,
        "meta_eccentricity": 0.002138,
        "meta_inclination": 99.0885,
        "meta_ra_of_asc_node": 267.2578,
        "meta_arg_of_pericenter": 94.4648,
        "meta_mean_anomaly": 265.8979,
        "meta_ephemeris_type": 0,
        "meta_classification_type": "U",
        "meta_norad_cat_id": 36182,
        "meta_element_set_no": 999,
        "meta_rev_at_epoch": 87861,
        "meta_bstar": 0.0025977479,
        "meta_mean_motion_dot": 7.323e-05,
        "meta_mean_motion_ddot": 0,
        "tle_line1": "1 36182U 99025DTF 25340.04969428  .00007323  00000+0  25977-2 0  9997",
        "tle_line2": "2 36182  99.0885 267.2578 0021380  94.4648 265.8979 14.34634335878619"
      },
      "geometry": {
        "type": "Point",
        "coordinates": [
          85.53768078467358,
          -15.202349912776144
        ]
      }
    },
    {
      "type": "Feature",
      "properties": {
        "norad_id": 36186,
        "name": "FENGYUN 1C DEB",
        "group": "fengyun-1c-debris",
        "lat": -54.56891158419678,
        "lon": 10.225399061948243,
        "alt_km": 550.1527969665804,
        "timestamp": "2025-12-06T18:50:10.456695+00:00",
        "meta_object_name": "FENGYUN 1C DEB",
        "meta_object_id": "1999-025DTK",
        "meta_epoch": "2025-12-06T02:33:05.742144",
        "meta_mean_motion": 15.0878318,
        "meta_eccentricity": 0.00149388,
        "meta_inclination": 98.985,
        "meta_ra_of_asc_node": 202.2814,
        "meta_arg_of_pericenter": 351.2319,
        "meta_mean_anomaly": 160.819,
        "meta_ephemeris_type": 0,
        "meta_classification_type": "U",
        "meta_norad_cat_id": 36186,
        "meta_element_set_no": 999,
        "meta_rev_at_epoch": 61470,
        "meta_bstar": 0.013316383,
        "meta_mean_motion_dot": 0.00215969,
        "meta_mean_motion_ddot": 0,
        "tle_line1": "1 36186U 99025DTK 25340.10631646  .00215969  00000+0  13316-1 0  9996",
        "tle_line2": "2 36186  98.9850 202.2814 0014938 351.2319 160.8190 15.08783180614707"
      },
      "geometry": {
        "type": "Point",
        "coordinates": [
          10.225399061948243,
          -54.56891158419678
        ]
      }
    },
    {
      "type": "Feature",
      "properties": {
        "norad_id": 36188,
        "name": "FENGYUN 1C DEB",
        "group": "fengyun-1c-debris",
        "lat": 65.22818858903715,
        "lon": 61.879781455617895,
        "alt_km": 692.8639145454817,
        "timestamp": "2025-12-06T18:50:10.456705+00:00",
        "meta_object_name": "FENGYUN 1C DEB",
        "meta_object_id": "1999-025DTM",
        "meta_epoch": "2025-12-06T00:26:45.096864",
        "meta_mean_motion": 14.6043913,
        "meta_eccentricity": 0.0047401,
        "meta_inclination": 98.5867,
        "meta_ra_of_asc_node": 80.1988,
        "meta_arg_of_pericenter": 325.7511,
        "meta_mean_anomaly": 34.0633,
        "meta_ephemeris_type": 0,
        "meta_classification_type": "U",
        "meta_norad_cat_id": 36188,
        "meta_element_set_no": 999,
        "meta_rev_at_epoch": 87954,
        "meta_bstar": 0.0036772102,
        "meta_mean_motion_dot": 0.0001809,
        "meta_mean_motion_ddot": 0,
        "tle_line1": "1 36188U 99025DTM 25340.01857751  .00018090  00000+0  36772-2 0  9993",
        "tle_line2": "2 36188  98.5867  80.1988 0047401 325.7511  34.0633 14.60439130879548"
      },
      "geometry": {
        "type": "Point",
        "coordinates": [
          61.879781455617895,
          65.22818858903715
        ]
      }
    },
    {
      "type": "Feature",
      "properties": {
        "norad_id": 36198,
        "name": "FENGYUN 1C DEB",
        "group": "fengyun-1c-debris",
        "lat": -17.22679870478644,
        "lon": -172.30003644757832,
        "alt_km": 841.4876696768097,
        "timestamp": "2025-12-06T18:50:10.456715+00:00",
        "meta_object_name": "FENGYUN 1C DEB",
        "meta_object_id": "1999-025DTX",
        "meta_epoch": "2025-12-06T07:40:35.397696",
        "meta_mean_motion": 14.07852518,
        "meta_eccentricity": 0.00971292,
        "meta_inclination": 98.622,
        "meta_ra_of_asc_node": 9.9523,
        "meta_arg_of_pericenter": 133.4266,
        "meta_mean_anomaly": 227.5039,
        "meta_ephemeris_type": 0,
        "meta_classification_type": "U",
        "meta_norad_cat_id": 36198,
        "meta_element_set_no": 999,
        "meta_rev_at_epoch": 63497,
        "meta_bstar": 0.0026385638,
        "meta_mean_motion_dot": 4.633e-05,
        "meta_mean_motion_ddot": 0,
        "tle_line1": "1 36198U 99025DTX 25340.31985414  .00004633  00000+0  26386-2 0  9993",
        "tle_line2": "2 36198  98.6220   9.9523 0097129 133.4266 227.5039 14.07852518634975"
      },
      "geometry": {
        "type": "Point",
        "coordinates": [
          -172.30003644757832,
          -17.22679870478644
        ]
      }
    },
    {
      "type": "Feature",
      "properties": {
        "norad_id": 36199,
        "name": "FENGYUN 1C DEB",
        "group": "fengyun-1c-debris",
        "lat": -58.528841008281724,
        "lon": 15.991293944755908,
        "alt_km": 854.0957017619767,
        "timestamp": "2025-12-06T18:50:10.456725+00:00",
        "meta_object_name": "FENGYUN 1C DEB",
        "meta_object_id": "1999-025DTY",
        "meta_epoch": "2025-12-03T20:34:05.424672",
        "meta_mean_motion": 14.29630765,
        "meta_eccentricity": 0.0093185,
        "meta_inclination": 98.2904,
        "meta_ra_of_asc_node": 359.4233,
        "meta_arg_of_pericenter": 93.4986,
        "meta_mean_anomaly": 267.6861,
        "meta_ephemeris_type": 0,
        "meta_classification_type": "U",
        "meta_norad_cat_id": 36199,
        "meta_element_set_no": 999,
        "meta_rev_at_epoch": 64853,
        "meta_bstar": 0.00046153,
        "meta_mean_motion_dot": 1.199e-05,
        "meta_mean_motion_ddot": 0,
        "tle_line1": "1 36199U 99025DTY 25337.85700723  .00001199  00000+0  46153-3 0  9996",
        "tle_line2": "2 36199  98.2904 359.4233 0093185  93.4986 267.6861 14.29630765648531"
      },
      "geometry": {
        "type": "Point",
        "coordinates": [
          15.991293944755908,
          -58.528841008281724
        ]
      }
    },
    {
      "type": "Feature",
      "properties": {
        "norad_id": 36200,
        "name": "FENGYUN 1C DEB",
        "group": "fengyun-1c-debris",
        "lat": -8.494935584023011,
        "lon": -127.43980918217876,
        "alt_km": 725.2205943702857,
        "timestamp": "2025-12-06T18:50:10.456735+00:00",
        "meta_object_name": "FENGYUN 1C DEB",
        "meta_object_id": "1999-025DTZ",
        "meta_epoch": "2025-12-03T10:55:39.061344",
        "meta_mean_motion": 14.58084214,
        "meta_eccentricity": 0.00335627,
        "meta_inclination": 99.3879,
        "meta_ra_of_asc_node": 50.2216,
        "meta_arg_of_pericenter": 37.7962,
        "meta_mean_anomaly": 322.5582,
        "meta_ephemeris_type": 0,
        "meta_classification_type": "U",
        "meta_norad_cat_id": 36200,
        "meta_element_set_no": 999,
        "meta_rev_at_epoch": 73225,
        "meta_bstar": 0.0051485049,
        "meta_mean_motion_dot": 0.00023905,
        "meta_mean_motion_ddot": 0,
        "tle_line1": "1 36200U 99025DTZ 25337.45531321  .00023905  00000+0  51485-2 0  9993",
        "tle_line2": "2 36200  99.3879  50.2216 0033562  37.7962 322.5582 14.58084214732250"
      },
      "geometry": {
        "type": "Point",
        "coordinates": [
          -127.43980918217876,
          -8.494935584023011
        ]
      }
    },
    {
      "type": "Feature",
      "properties": {
        "norad_id": 36203,
        "name": "FENGYUN 1C DEB",
        "group": "fengyun-1c-debris",
        "lat": 79.93193333294376,
        "lon": 168.24075776357282,
        "alt_km": 610.1437090343779,
        "timestamp": "2025-12-06T18:50:10.456745+00:00",
        "meta_object_name": "FENGYUN 1C DEB",
        "meta_object_id": "1999-025DUC",
        "meta_epoch": "2025-12-02T02:18:32.511168",
        "meta_mean_motion": 14.78101467,
        "meta_eccentricity": 0.00828267,
        "meta_inclination": 99.0947,
        "meta_ra_of_asc_node": 278.5034,
        "meta_arg_of_pericenter": 181.911,
        "meta_mean_anomaly": 178.1793,
        "meta_ephemeris_type": 0,
        "meta_classification_type": "U",
        "meta_norad_cat_id": 36203,
        "meta_element_set_no": 999,
        "meta_rev_at_epoch": 63272,
        "meta_bstar": 0.0013137928,
        "meta_mean_motion_dot": 0.00010006,
        "meta_mean_motion_ddot": 0,
        "tle_line1": "1 36203U 99025DUC 25336.09620962  .00010006  00000+0  13138-2 0  9996",
        "tle_line2": "2 36203  99.0947 278.5034 0082826 181.9110 178.1793 14.78101467632725"
      },
      "geometry": {
        "type": "Point",
        "coordinates": [
          168.24075776357282,
          79.93193333294376
        ]
      }
    }
  ]
}